STARLINK-36854          
1 68312U 26057U   26087.50001156 -.01259704  52905-3 -19282-2 0  9999
2 68312  97.2789 210.6037 0001444  58.4220  82.3368 16.04458427  2235
STARLINK-36815          
1 68313U 26057V   26087.50001156 -.01241579  51578-3 -18868-2 0  9995
2 68313  97.2790 210.6050 0001462  55.6475  87.7993 16.04575805  2237
STARLINK-37155          
1 68314U 26057W   26087.50001156 -.01253411  52665-3 -18737-2 0  9997
2 68314  97.2786 210.6072 0001299  64.1646  84.8842 16.04852428  2285
STARLINK-37150          
1 68315U 26057X   26087.25002315 -.01055397  38478-3 -15429-2 0  9992
2 68315  97.2791 210.3334 0001508  56.2478  86.8466 16.05192214  2249
STARLINK-37154          
1 68316U 26057Y   26087.25002315 -.01086365  40804-3 -15478-2 0  9992
2 68316  97.2786 210.3368 0001488  56.4709  94.5176 16.05620693  2147
STARLINK-37139          
1 68317U 26057Z   26087.25002315 -.01049701  38216-3 -15105-2 0  9997
2 68317  97.2787 210.3355 0001459  50.6880  97.6406 16.05452388  1995
STARLINK-37113          
1 68318U 26057AA  26087.25002315 -.01055634  38751-3 -14928-2 0  9996
2 68318  97.2786 210.3381 0001428  59.1865  94.6470 16.05739009  2242
PROGRESS-MS 33          
1 68319U 26058A   26087.48736240  .00011758  00000+0  22419-3 0  9997
2 68319  51.6344 339.4313 0006231 242.6596 117.3758 15.48607800   713
CENTISPACE-1 OBJECT A   
1 68350U 26060A   26087.19423177  .00000020  00000+0  33910-4 0  9994
2 68350  54.9867   6.1190 0012012 306.4727  53.5165 14.74880166   825
CENTISPACE-1 OBJECT B   
1 68351U 26060B   26085.49984115  .00000016  00000+0  33361-4 0  9995
2 68351  54.9834  13.0446 0012921 301.6406  58.3332 14.74920000   574
CENTISPACE-1 OBJECT C   
1 68352U 26060C   26087.19343442  .00000043  00000+0  37214-4 0  9998
2 68352  54.9834   6.1290 0012496 312.7791  47.2156 14.75106596   828
CENTISPACE-1 OBJECT D   
1 68353U 26060D   26087.05774787  .00000042  00000+0  36924-4 0  9990
2 68353  54.9866   6.6899 0012429 311.9738  48.0202 14.75150209   801
