CCSDS_OMM_VERS = 2.0
CREATION_DATE  = 
ORIGINATOR     = 

OBJECT_NAME    = STARLINK-36854
OBJECT_ID      = 2026-057U
CENTER_NAME    = EARTH
REF_FRAME      = TEME
TIME_SYSTEM    = UTC
MEAN_ELEMENT_THEORY = SGP/SGP4

EPOCH          = 2026-03-28T12:00:00.998784
MEAN_MOTION    = 16.04458427
ECCENTRICITY   = .0001444
INCLINATION    = 97.2789
RA_OF_ASC_NODE = 210.6037
ARG_OF_PERICENTER = 58.4220
MEAN_ANOMALY   = 82.3368

EPHEMERIS_TYPE = 0
CLASSIFICATION_TYPE = U
NORAD_CAT_ID   = 68312
ELEMENT_SET_NO = 999
REV_AT_EPOCH   = 223
BSTAR          = -.19282E-2
MEAN_MOTION_DOT = -.1259704E-1
MEAN_MOTION_DDOT = .52905E-3

CCSDS_OMM_VERS = 2.0
CREATION_DATE  = 
ORIGINATOR     = 

OBJECT_NAME    = STARLINK-36815
OBJECT_ID      = 2026-057V
CENTER_NAME    = EARTH
REF_FRAME      = TEME
TIME_SYSTEM    = UTC
MEAN_ELEMENT_THEORY = SGP/SGP4

EPOCH          = 2026-03-28T12:00:00.998784
MEAN_MOTION    = 16.04575805
ECCENTRICITY   = .0001462
INCLINATION    = 97.2790
RA_OF_ASC_NODE = 210.6050
ARG_OF_PERICENTER = 55.6475
MEAN_ANOMALY   = 87.7993

EPHEMERIS_TYPE = 0
CLASSIFICATION_TYPE = U
NORAD_CAT_ID   = 68313
ELEMENT_SET_NO = 999
REV_AT_EPOCH   = 223
BSTAR          = -.18868E-2
MEAN_MOTION_DOT = -.1241579E-1
MEAN_MOTION_DDOT = .51578E-3

CCSDS_OMM_VERS = 2.0
CREATION_DATE  = 
ORIGINATOR     = 

OBJECT_NAME    = STARLINK-37155
OBJECT_ID      = 2026-057W
CENTER_NAME    = EARTH
REF_FRAME      = TEME
TIME_SYSTEM    = UTC
MEAN_ELEMENT_THEORY = SGP/SGP4

EPOCH          = 2026-03-28T12:00:00.998784
MEAN_MOTION    = 16.04852428
ECCENTRICITY   = .0001299
INCLINATION    = 97.2786
RA_OF_ASC_NODE = 210.6072
ARG_OF_PERICENTER = 64.1646
MEAN_ANOMALY   = 84.8842

EPHEMERIS_TYPE = 0
CLASSIFICATION_TYPE = U
NORAD_CAT_ID   = 68314
ELEMENT_SET_NO = 999
REV_AT_EPOCH   = 228
BSTAR          = -.18737E-2
MEAN_MOTION_DOT = -.1253411E-1
MEAN_MOTION_DDOT = .52665E-3

CCSDS_OMM_VERS = 2.0
CREATION_DATE  = 
ORIGINATOR     = 

OBJECT_NAME    = STARLINK-37150
OBJECT_ID      = 2026-057X
CENTER_NAME    = EARTH
REF_FRAME      = TEME
TIME_SYSTEM    = UTC
MEAN_ELEMENT_THEORY = SGP/SGP4

EPOCH          = 2026-03-28T06:00:02.000160
MEAN_MOTION    = 16.05192214
ECCENTRICITY   = .00015083
INCLINATION    = 97.2791
RA_OF_ASC_NODE = 210.3334
ARG_OF_PERICENTER = 56.2478
MEAN_ANOMALY   = 86.8466

EPHEMERIS_TYPE = 0
CLASSIFICATION_TYPE = U
NORAD_CAT_ID   = 68315
ELEMENT_SET_NO = 999
REV_AT_EPOCH   = 224
BSTAR          = -.15428804E-2
MEAN_MOTION_DOT = -.1055397E-1
MEAN_MOTION_DDOT = .3847834E-3

CCSDS_OMM_VERS = 2.0
CREATION_DATE  = 
ORIGINATOR     = 

OBJECT_NAME    = STARLINK-37154
OBJECT_ID      = 2026-057Y
CENTER_NAME    = EARTH
REF_FRAME      = TEME
TIME_SYSTEM    = UTC
MEAN_ELEMENT_THEORY = SGP/SGP4

EPOCH          = 2026-03-28T06:00:02.000160
MEAN_MOTION    = 16.05620693
ECCENTRICITY   = .00014887
INCLINATION    = 97.2786
RA_OF_ASC_NODE = 210.3368
ARG_OF_PERICENTER = 56.4709
MEAN_ANOMALY   = 94.5176

EPHEMERIS_TYPE = 0
CLASSIFICATION_TYPE = U
NORAD_CAT_ID   = 68316
ELEMENT_SET_NO = 999
REV_AT_EPOCH   = 214
BSTAR          = -.1547825E-2
MEAN_MOTION_DOT = -.1086365E-1
MEAN_MOTION_DDOT = .40803519E-3

CCSDS_OMM_VERS = 2.0
CREATION_DATE  = 
ORIGINATOR     = 

OBJECT_NAME    = STARLINK-37139
OBJECT_ID      = 2026-057Z
CENTER_NAME    = EARTH
REF_FRAME      = TEME
TIME_SYSTEM    = UTC
MEAN_ELEMENT_THEORY = SGP/SGP4

EPOCH          = 2026-03-28T06:00:02.000160
MEAN_MOTION    = 16.05452388
ECCENTRICITY   = .00014597
INCLINATION    = 97.2787
RA_OF_ASC_NODE = 210.3355
ARG_OF_PERICENTER = 50.6880
MEAN_ANOMALY   = 97.6406

EPHEMERIS_TYPE = 0
CLASSIFICATION_TYPE = U
NORAD_CAT_ID   = 68317
ELEMENT_SET_NO = 999
REV_AT_EPOCH   = 199
BSTAR          = -.15104816E-2
MEAN_MOTION_DOT = -.1049701E-1
MEAN_MOTION_DDOT = .38215624E-3

CCSDS_OMM_VERS = 2.0
CREATION_DATE  = 
ORIGINATOR     = 

OBJECT_NAME    = STARLINK-37113
OBJECT_ID      = 2026-057AA
CENTER_NAME    = EARTH
REF_FRAME      = TEME
TIME_SYSTEM    = UTC
MEAN_ELEMENT_THEORY = SGP/SGP4

EPOCH          = 2026-03-28T06:00:02.000160
MEAN_MOTION    = 16.05739009
ECCENTRICITY   = .00014286
INCLINATION    = 97.2786
RA_OF_ASC_NODE = 210.3381
ARG_OF_PERICENTER = 59.1865
MEAN_ANOMALY   = 94.6470

EPHEMERIS_TYPE = 0
CLASSIFICATION_TYPE = U
NORAD_CAT_ID   = 68318
ELEMENT_SET_NO = 999
REV_AT_EPOCH   = 224
BSTAR          = -.14928482E-2
MEAN_MOTION_DOT = -.1055634E-1
MEAN_MOTION_DDOT = .38750767E-3

CCSDS_OMM_VERS = 2.0
CREATION_DATE  = 
ORIGINATOR     = 

OBJECT_NAME    = PROGRESS-MS 33
OBJECT_ID      = 2026-058A
CENTER_NAME    = EARTH
REF_FRAME      = TEME
TIME_SYSTEM    = UTC
MEAN_ELEMENT_THEORY = SGP/SGP4

EPOCH          = 2026-03-28T11:41:48.111360
MEAN_MOTION    = 15.48607800
ECCENTRICITY   = .0006231
INCLINATION    = 51.6344
RA_OF_ASC_NODE = 339.4313
ARG_OF_PERICENTER = 242.6596
MEAN_ANOMALY   = 117.3758

EPHEMERIS_TYPE = 0
CLASSIFICATION_TYPE = U
NORAD_CAT_ID   = 68319
ELEMENT_SET_NO = 999
REV_AT_EPOCH   = 71
BSTAR          = .22419E-3
MEAN_MOTION_DOT = .11758E-3
MEAN_MOTION_DDOT = 0

CCSDS_OMM_VERS = 2.0
CREATION_DATE  = 
ORIGINATOR     = 

OBJECT_NAME    = CENTISPACE-1 OBJECT A
OBJECT_ID      = 2026-060A
CENTER_NAME    = EARTH
REF_FRAME      = TEME
TIME_SYSTEM    = UTC
MEAN_ELEMENT_THEORY = SGP/SGP4

EPOCH          = 2026-03-28T04:39:41.624928
MEAN_MOTION    = 14.74880166
ECCENTRICITY   = .00120124
INCLINATION    = 54.9867
RA_OF_ASC_NODE = 6.1190
ARG_OF_PERICENTER = 306.4727
MEAN_ANOMALY   = 53.5165

EPHEMERIS_TYPE = 0
CLASSIFICATION_TYPE = U
NORAD_CAT_ID   = 68350
ELEMENT_SET_NO = 999
REV_AT_EPOCH   = 82
BSTAR          = .33910316E-4
MEAN_MOTION_DOT = .2E-6
MEAN_MOTION_DDOT = 0

CCSDS_OMM_VERS = 2.0
CREATION_DATE  = 
ORIGINATOR     = 

OBJECT_NAME    = CENTISPACE-1 OBJECT B
OBJECT_ID      = 2026-060B
CENTER_NAME    = EARTH
REF_FRAME      = TEME
TIME_SYSTEM    = UTC
MEAN_ELEMENT_THEORY = SGP/SGP4

EPOCH          = 2026-03-26T11:59:46.275360
MEAN_MOTION    = 14.74920000
ECCENTRICITY   = .0012921
INCLINATION    = 54.9834
RA_OF_ASC_NODE = 13.0446
ARG_OF_PERICENTER = 301.6406
MEAN_ANOMALY   = 58.3332

EPHEMERIS_TYPE = 0
CLASSIFICATION_TYPE = U
NORAD_CAT_ID   = 68351
ELEMENT_SET_NO = 999
REV_AT_EPOCH   = 57
BSTAR          = .33361247E-4
MEAN_MOTION_DOT = .16E-6
MEAN_MOTION_DDOT = 0

CCSDS_OMM_VERS = 2.0
CREATION_DATE  = 
ORIGINATOR     = 

OBJECT_NAME    = CENTISPACE-1 OBJECT C
OBJECT_ID      = 2026-060C
CENTER_NAME    = EARTH
REF_FRAME      = TEME
TIME_SYSTEM    = UTC
MEAN_ELEMENT_THEORY = SGP/SGP4

EPOCH          = 2026-03-28T04:38:32.733888
MEAN_MOTION    = 14.75106596
ECCENTRICITY   = .0012496
INCLINATION    = 54.9834
RA_OF_ASC_NODE = 6.1290
ARG_OF_PERICENTER = 312.7791
MEAN_ANOMALY   = 47.2156

EPHEMERIS_TYPE = 0
CLASSIFICATION_TYPE = U
NORAD_CAT_ID   = 68352
ELEMENT_SET_NO = 999
REV_AT_EPOCH   = 82
BSTAR          = .37214E-4
MEAN_MOTION_DOT = .43E-6
MEAN_MOTION_DDOT = 0

CCSDS_OMM_VERS = 2.0
CREATION_DATE  = 
ORIGINATOR     = 

OBJECT_NAME    = CENTISPACE-1 OBJECT D
OBJECT_ID      = 2026-060D
CENTER_NAME    = EARTH
REF_FRAME      = TEME
TIME_SYSTEM    = UTC
MEAN_ELEMENT_THEORY = SGP/SGP4

EPOCH          = 2026-03-28T01:23:09.415968
MEAN_MOTION    = 14.75150209
ECCENTRICITY   = .0012429
INCLINATION    = 54.9866
RA_OF_ASC_NODE = 6.6899
ARG_OF_PERICENTER = 311.9738
MEAN_ANOMALY   = 48.0202

EPHEMERIS_TYPE = 0
CLASSIFICATION_TYPE = U
NORAD_CAT_ID   = 68353
ELEMENT_SET_NO = 999
REV_AT_EPOCH   = 80
BSTAR          = .36924E-4
MEAN_MOTION_DOT = .42E-6
MEAN_MOTION_DDOT = 0

